     3.00           N                   E                   RINEX VERSION / TYPE
BRD_USR             ESA                 20190115 211630  UTCPGM / RUN BY / DATE
 GAL   3.5750E+01  1.3672E-01 -6.1035E-05  0.0000E+00       IONOSPHERIC CORR
GAUT  1.8626451492E-09-8.881784197E-16 172800 2036 GSTB   0 TIME SYSTEM CORR
GPGA -4.4528860599E-09-2.442490654E-14 259200 2036 GSTB   0 TIME SYSTEM CORR
                                                            END OF HEADER
E26 2019 01 15 18 40 00 5.016106704716E-03-4.331468517194E-11 0.000000000000E+00
     1.600000000000E+01-6.290625000000E+01 2.663325223900E-09 1.957961419078E+00
    -2.892687916756E-06 3.189353737980E-04 1.092068850994E-05 5.440612813950E+03
     2.400000000000E+05 1.676380634308E-08-9.822427571878E-01 4.097819328308E-08
     9.783596708245E-01 1.130312500000E+02-1.966580771480E+00-5.438440818604E-09
     2.517962026082E-10 5.210000000000E+02 2.036000000000E+03 0.000000000000E+00
     3.120000000000E+00 0.000000000000E+00 1.164153218269E-09 1.164153218269E-09
     2.412250000000E+05 0.000000000000E+00 0.000000000000E+00 0.000000000000E+00
E27 2019 01 15 18 10 00 5.490903859027E-04-7.645439836779E-12 0.000000000000E+00
     1.300000000000E+01 9.953125000000E+01 2.908335429559E-09-2.806414458930E+00
     4.554167389870E-06 1.684000017121E-04 4.176050424576E-06 5.440627025604E+03
     2.382000000000E+05-7.823109626770E-08-3.073750959962E+00-2.793967723846E-08
     9.896372155966E-01 2.639062500000E+02-8.179606322578E-01-5.725238479163E-09
     1.785788670980E-11 5.210000000000E+02 2.036000000000E+03 0.000000000000E+00
     3.120000000000E+00 0.000000000000E+00-2.561137080193E-09-3.026798367500E-09
     2.412250000000E+05 0.000000000000E+00 0.000000000000E+00 0.000000000000E+00
E30 2019 01 15 18 40 00 5.185951595195E-03-3.048228336411E-11 0.000000000000E+00
     1.600000000000E+01 9.325000000000E+01 2.944051202978E-09 3.011624068037E+00
     4.339963197708E-06 3.118471940979E-04 4.069879651070E-06 5.440616281509E+03
     2.400000000000E+05 2.607703208923E-08-3.067768163372E+00-5.587935447693E-08
     9.876529091252E-01 2.625937500000E+02 6.363383959684E-01-5.690237021212E-09
    -2.785830326729E-11 5.210000000000E+02 2.036000000000E+03 0.000000000000E+00
     3.120000000000E+00 0.000000000000E+00-3.026798367500E-09-3.725290298462E-09
     2.412250000000E+05 0.000000000000E+00 0.000000000000E+00 0.000000000000E+00
E31 2019 01 15 18 10 00 9.318397496827E-04-9.748646334629E-12 0.000000000000E+00
     1.300000000000E+01 1.118437500000E+02 2.931907840016E-09 1.867226138606E+00
     5.189329385757E-06 2.127365441993E-04 4.345551133156E-06 5.440624870300E+03
     2.382000000000E+05-7.264316082001E-08-3.073798993415E+00-4.842877388000E-08
     9.896397435191E-01 2.559375000000E+02-1.564569509617E+00-5.693451440820E-09
     2.178662178596E-11 5.210000000000E+02 2.036000000000E+03 0.000000000000E+00
     3.120000000000E+00 0.000000000000E+00-2.328306436539E-10-2.328306436539E-10
     2.412250000000E+05 0.000000000000E+00 0.000000000000E+00 0.000000000000E+00
E33 2019 01 15 18 30 00 8.479237440042E-04 7.105427357601E-14 0.000000000000E+00
     1.500000000000E+01-8.125000000000E+01 2.532248335450E-09 5.269145155103E-01
    -3.762543201447E-06 3.763991408050E-04 1.075118780136E-05 5.440605028152E+03
     2.394000000000E+05 3.725290298462E-08-9.911677746191E-01 1.862645149231E-08
     9.852388470612E-01 1.210000000000E+02-1.401275073829E+00-5.374509584183E-09
     1.803646557690E-10 5.210000000000E+02 2.036000000000E+03 0.000000000000E+00
     3.120000000000E+00 4.550000000000E+02-8.381903171539E-09-9.313225746155E-09
     2.412250000000E+05 0.000000000000E+00 0.000000000000E+00 0.000000000000E+00
E36 2019 01 15 18 40 00 7.592833717354E-04-4.519051799434E-12 0.000000000000E+00
     1.600000000000E+01-5.971875000000E+01 2.520819287956E-09-1.649982682413E+00
    -2.725049853325E-06 3.391397185624E-04 9.190291166306E-06 5.440604423523E+03
     2.400000000000E+05 5.960464477539E-08-9.911454212309E-01 0.000000000000E+00
     9.852474387791E-01 1.571875000000E+02-1.504554241923E+00-5.382367054335E-09
     1.885792836555E-10 5.210000000000E+02 2.036000000000E+03 0.000000000000E+00
     3.120000000000E+00 4.550000000000E+02 9.313225746155E-10 1.164153218269E-09
     2.412250000000E+05 0.000000000000E+00 0.000000000000E+00 0.000000000000E+00
E02 2019 01 15 18 50 00 4.346563946456E-05 1.534772309242E-12 0.000000000000E+00
     1.700000000000E+01 9.693750000000E+01 2.901192274875E-09-1.653745303324E+00
     4.583969712257E-06 2.504744334146E-04 4.643574357033E-06 5.440623064041E+03
     2.406000000000E+05 8.754432201385E-08-3.071204259505E+00 5.401670932770E-08
     9.901088413674E-01 2.544375000000E+02-1.213357421207E-01-5.695237229491E-09
     3.643008888800E-11 5.210000000000E+02 2.036000000000E+03 0.000000000000E+00
     3.120000000000E+00 0.000000000000E+00-6.053596735001E-09-7.683411240578E-09
     2.412850000000E+05 0.000000000000E+00 0.000000000000E+00 0.000000000000E+00
E05 2019 01 15 18 50 00 1.245086314157E-04-6.565414878423E-12 0.000000000000E+00
     1.700000000000E+01-5.253125000000E+01 3.548362089238E-09-5.453015598045E-01
    -2.617016434669E-06 1.283419551328E-04 7.629394531250E-06 5.440611747742E+03
     2.406000000000E+05-2.607703208923E-08 1.119430707411E+00-1.676380634308E-08
     9.524257027992E-01 1.739062500000E+02 1.648670611669E+00-5.738810473063E-09
    -1.814361289716E-10 5.210000000000E+02 2.036000000000E+03 0.000000000000E+00
     3.120000000000E+00 0.000000000000E+00-1.396983861923E-09-1.396983861923E-09
     2.412850000000E+05 0.000000000000E+00 0.000000000000E+00 0.000000000000E+00
E07 2019 01 15 18 50 00-1.131793833338E-04-7.077005648171E-12 0.000000000000E+00
     1.700000000000E+01-3.131250000000E+01 3.536575884010E-09-1.209483165017E+00
    -1.529231667519E-06 1.333514228463E-04 8.145347237587E-06 5.440611116409E+03
     2.406000000000E+05 0.000000000000E+00 1.119448247799E+00 5.587935447693E-08
     9.524555975301E-01 1.587812500000E+02-4.506128836639E-02-5.728095741037E-09
    -1.971510692762E-10 5.210000000000E+02 2.036000000000E+03 0.000000000000E+00
     3.120000000000E+00 0.000000000000E+00 2.328306436539E-10 2.328306436539E-10
     2.412850000000E+05 0.000000000000E+00 0.000000000000E+00 0.000000000000E+00
E08 2019 01 15 18 50 00 6.422797101550E-03-7.474909580196E-12 0.000000000000E+00
     1.700000000000E+01-4.125000000000E+01 3.404427522357E-09-9.132197762293E-01
    -1.892447471619E-06 2.114487579092E-04 7.962808012962E-06 5.440614446640E+03
     2.406000000000E+05-7.450580596924E-09 1.110849777089E+00 2.421438694000E-08
     9.583985515466E-01 1.694062500000E+02 4.452655742984E-01-5.654521247792E-09
    -1.875078104529E-10 5.210000000000E+02 2.036000000000E+03 0.000000000000E+00
     3.120000000000E+00 0.000000000000E+00-8.847564458847E-09-1.001171767712E-08
     2.412850000000E+05 0.000000000000E+00 0.000000000000E+00 0.000000000000E+00
E09 2019 01 15 18 50 00 6.557297543623E-03-1.131184035330E-11 0.000000000000E+00
     1.700000000000E+01-5.306250000000E+01 3.438714664840E-09 1.822433935003E+00
    -2.482905983925E-06 2.362929517403E-04 7.549300789833E-06 5.440611537933E+03
     2.406000000000E+05 1.676380634308E-08 1.110847505177E+00-4.097819328308E-08
     9.584289977977E-01 1.753750000000E+02 6.452587423023E-02-5.696665860428E-09
    -2.328668426958E-10 5.210000000000E+02 2.036000000000E+03 0.000000000000E+00
     3.120000000000E+00 0.000000000000E+00-3.259629011154E-09-3.958120942116E-09
     2.412850000000E+05 0.000000000000E+00 0.000000000000E+00 0.000000000000E+00
E12 2019 01 15 18 50 00 5.949726037215E-03 8.431300102529E-11 0.000000000000E+00
     1.700000000000E+01-8.390625000000E+01 2.526890969437E-09-6.552023939811E-01
    -3.796070814133E-06 4.104794934392E-04 1.067481935024E-05 5.440610902786E+03
     2.406000000000E+05-3.725290298462E-09-9.858736964538E-01-2.607703208923E-08
     9.820161233818E-01 1.227812500000E+02-8.414480877703E-01-5.347722754118E-09
     1.589351917173E-10 5.210000000000E+02 2.036000000000E+03 0.000000000000E+00
     3.120000000000E+00 0.000000000000E+00-1.559965312481E-08-1.606531441212E-08
     2.412850000000E+05 0.000000000000E+00 0.000000000000E+00 0.000000000000E+00
E14 2019 01 15 18 50 00 6.459448020905E-03-5.599076757790E-12 0.000000000000E+00
     1.700000000000E+01-9.231250000000E+01 1.503276903231E-09 9.761614316018E-01
    -6.154179573059E-06 1.662799650803E-01 3.375113010406E-06 5.289387178421E+03
     2.406000000000E+05 5.731359124184E-06-1.588423989332E+00-1.333653926849E-06
     8.826637770492E-01 2.861562500000E+02 1.458670727765E+00-2.478674675321E-09
    -1.242908915002E-10 5.210000000000E+02 2.036000000000E+03 0.000000000000E+00
     3.120000000000E+00 4.550000000000E+02 3.306195139885E-08 3.725290298462E-08
     2.412850000000E+05 0.000000000000E+00 0.000000000000E+00 0.000000000000E+00
E18 2019 01 15 18 50 00 5.603893660009E-03-2.847855284926E-11 0.000000000000E+00
     1.700000000000E+01-8.487500000000E+01 4.211246843906E-09-2.195968143253E+00
    -3.241002559662E-06 1.663184274221E-01 3.758817911148E-06 5.289378427505E+03
     2.406000000000E+05 2.061948180199E-06-1.571212774222E+00 4.451721906662E-07
     8.818473224692E-01 2.048437500000E+02 1.443207806552E+00-5.540945088318E-09
     4.471614832135E-10 5.210000000000E+02 2.036000000000E+03 0.000000000000E+00
     3.120000000000E+00 4.550000000000E+02 1.420266926289E-08 1.583248376846E-08
     2.412850000000E+05 0.000000000000E+00 0.000000000000E+00 0.000000000000E+00
